NAVSTAR 77 (USA 289)    
1 43873U 18109A   23351.55736889  .00000064  00000+0  00000+0 0  9997
2 43873  55.2308 128.2466 0027983 190.7701 131.0906  2.00571803 36761
